{"type": "FeatureCollection", "features": [{"type": "Feature", "properties": {"norad_id": 28054, "name": "DMSP 5D-3 F16 (USA 172)", "group": "weather", "lat": 58.83939250916432, "lon": -150.64927115916097, "alt_km": 842.9743106532342, "timestamp": "2025-12-22T14:45:57.026599+00:00", "meta": {"OBJECT_NAME": "DMSP 5D-3 F16 (USA 172)", "OBJECT_ID": "2003-048A", "EPOCH": "2025-12-22T06:00:07.106400", "MEAN_MOTION": 14.14427513, "ECCENTRICITY": 0.00062621, "INCLINATION": 99.0038, "RA_OF_ASC_NODE": 13.7816, "ARG_OF_PERICENTER": 290.4447, "MEAN_ANOMALY": 131.1258, "EPHEMERIS_TYPE": 0, "CLASSIFICATION_TYPE": "U", "NORAD_CAT_ID": 28054, "ELEMENT_SET_NO": 999, "REV_AT_EPOCH": 14447, "BSTAR": 8.5417062e-05, "MEAN_MOTION_DOT": 1.18e-06, "MEAN_MOTION_DDOT": 0}, "tle": {"line1": "1 28054U 03048A   25356.25008225  .00000118  00000+0  85417-4 0  9997", "line2": "2 28054  99.0038  13.7816 0006262 290.4447 131.1258 14.14427513144475"}}, "geometry": {"type": "Point", "coordinates": [-150.64927115916097, 58.83939250916432]}}, {"type": "Feature", "properties": {"norad_id": 28912, "name": "METEOSAT-9 (MSG-2)", "group": "weather", "lat": -7.594872280211504, "lon": -1.8840420678655436, "alt_km": 35389.42318554322, "timestamp": "2025-12-22T14:45:57.026651+00:00", "meta": {"OBJECT_NAME": "METEOSAT-9 (MSG-2)", "OBJECT_ID": "2005-049B", "EPOCH": "2025-12-21T18:33:02.923200", "MEAN_MOTION": 1.00265925, "ECCENTRICITY": 0.01004538, "INCLINATION": 8.9455, "RA_OF_ASC_NODE": 55.869, "ARG_OF_PERICENTER": 282.9863, "MEAN_ANOMALY": 74.5349, "EPHEMERIS_TYPE": 0, "CLASSIFICATION_TYPE": "U", "NORAD_CAT_ID": 28912, "ELEMENT_SET_NO": 999, "REV_AT_EPOCH": 521, "BSTAR": 0, "MEAN_MOTION_DOT": 1.13e-06, "MEAN_MOTION_DDOT": 0}, "tle": {"line1": "1 28912U 05049B   25355.77295050  .00000113  00000+0  00000+0 0  9998", "line2": "2 28912   8.9455  55.8690 0100453 282.9863  74.5349  1.00265925  5219"}}, "geometry": {"type": "Point", "coordinates": [-1.8840420678655436, -7.594872280211504]}}, {"type": "Feature", "properties": {"norad_id": 29522, "name": "DMSP 5D-3 F17 (USA 191)", "group": "weather", "lat": 74.82665717309966, "lon": -32.755449192131216, "alt_km": 838.708400687914, "timestamp": "2025-12-22T14:45:57.026668+00:00", "meta": {"OBJECT_NAME": "DMSP 5D-3 F17 (USA 191)", "OBJECT_ID": "2006-050A", "EPOCH": "2025-12-22T05:54:51.445728", "MEAN_MOTION": 14.14923667, "ECCENTRICITY": 0.00098112, "INCLINATION": 98.7391, "RA_OF_ASC_NODE": 1.4376, "ARG_OF_PERICENTER": 196.3171, "MEAN_ANOMALY": 163.7688, "EPHEMERIS_TYPE": 0, "CLASSIFICATION_TYPE": "U", "NORAD_CAT_ID": 29522, "ELEMENT_SET_NO": 999, "REV_AT_EPOCH": 98739, "BSTAR": 9.6637518e-05, "MEAN_MOTION_DOT": 1.44e-06, "MEAN_MOTION_DDOT": 0}, "tle": {"line1": "1 29522U 06050A   25356.24642877  .00000144  00000+0  96638-4 0  9996", "line2": "2 29522  98.7391   1.4376 0009811 196.3171 163.7688 14.14923667987395"}}, "geometry": {"type": "Point", "coordinates": [-32.755449192131216, 74.82665717309966]}}, {"type": "Feature", "properties": {"norad_id": 32958, "name": "FENGYUN 3A", "group": "weather", "lat": -44.62225739176122, "lon": -55.4035762656347, "alt_km": 829.2029290408755, "timestamp": "2025-12-22T14:45:57.026682+00:00", "meta": {"OBJECT_NAME": "FENGYUN 3A", "OBJECT_ID": "2008-026A", "EPOCH": "2025-12-22T06:31:12.878112", "MEAN_MOTION": 14.19517391, "ECCENTRICITY": 0.00076491, "INCLINATION": 98.6711, "RA_OF_ASC_NODE": 295.5982, "ARG_OF_PERICENTER": 279.5774, "MEAN_ANOMALY": 80.4537, "EPHEMERIS_TYPE": 0, "CLASSIFICATION_TYPE": "U", "NORAD_CAT_ID": 32958, "ELEMENT_SET_NO": 999, "REV_AT_EPOCH": 91030, "BSTAR": 6.2014742e-05, "MEAN_MOTION_DOT": 8.7e-07, "MEAN_MOTION_DDOT": 0}, "tle": {"line1": "1 32958U 08026A   25356.27167683  .00000087  00000+0  62015-4 0  9996", "line2": "2 32958  98.6711 295.5982 0007649 279.5774  80.4537 14.19517391910309"}}, "geometry": {"type": "Point", "coordinates": [-55.4035762656347, -44.62225739176122]}}, {"type": "Feature", "properties": {"norad_id": 35491, "name": "GOES 14", "group": "weather", "lat": 1.137694337440456, "lon": -163.08381573466878, "alt_km": 35834.386528983516, "timestamp": "2025-12-22T14:45:57.026696+00:00", "meta": {"OBJECT_NAME": "GOES 14", "OBJECT_ID": "2009-033A", "EPOCH": "2025-12-22T05:52:38.091648", "MEAN_MOTION": 1.00096974, "ECCENTRICITY": 5.464e-05, "INCLINATION": 1.227, "RA_OF_ASC_NODE": 85.3088, "ARG_OF_PERICENTER": 186.223, "MEAN_ANOMALY": 151.9302, "EPHEMERIS_TYPE": 0, "CLASSIFICATION_TYPE": "U", "NORAD_CAT_ID": 35491, "ELEMENT_SET_NO": 999, "REV_AT_EPOCH": 481, "BSTAR": 0, "MEAN_MOTION_DOT": 2.6e-07, "MEAN_MOTION_DDOT": 0}, "tle": {"line1": "1 35491U 09033A   25356.24488532  .00000026  00000+0  00000+0 0  9990", "line2": "2 35491   1.2270  85.3088 0000546 186.2230 151.9302  1.00096974  4815"}}, "geometry": {"type": "Point", "coordinates": [-163.08381573466878, 1.137694337440456]}}, {"type": "Feature", "properties": {"norad_id": 35951, "name": "DMSP 5D-3 F18 (USA 210)", "group": "weather", "lat": -59.11994881308224, "lon": -11.870213586442771, "alt_km": 851.1646940699584, "timestamp": "2025-12-22T14:45:57.026708+00:00", "meta": {"OBJECT_NAME": "DMSP 5D-3 F18 (USA 210)", "OBJECT_ID": "2009-057A", "EPOCH": "2025-12-22T04:51:58.343904", "MEAN_MOTION": 14.14775365, "ECCENTRICITY": 0.00118036, "INCLINATION": 98.8845, "RA_OF_ASC_NODE": 332.5566, "ARG_OF_PERICENTER": 37.7781, "MEAN_ANOMALY": 322.4218, "EPHEMERIS_TYPE": 0, "CLASSIFICATION_TYPE": "U", "NORAD_CAT_ID": 35951, "ELEMENT_SET_NO": 999, "REV_AT_EPOCH": 83456, "BSTAR": 0.00017108502, "MEAN_MOTION_DOT": 2.85e-06, "MEAN_MOTION_DDOT": 0}, "tle": {"line1": "1 35951U 09057A   25356.20275861  .00000285  00000+0  17109-3 0  9991", "line2": "2 35951  98.8845 332.5566 0011803  37.7781 322.4218 14.14775365834564"}}, "geometry": {"type": "Point", "coordinates": [-11.870213586442771, -59.11994881308224]}}, {"type": "Feature", "properties": {"norad_id": 36411, "name": "EWS-G2 (GOES 15)", "group": "weather", "lat": -0.791351823887842, "lon": 14.318908199083742, "alt_km": 35794.37370097705, "timestamp": "2025-12-22T14:45:57.026722+00:00", "meta": {"OBJECT_NAME": "EWS-G2 (GOES 15)", "OBJECT_ID": "2010-008A", "EPOCH": "2025-12-22T03:11:05.468352", "MEAN_MOTION": 1.00271006, "ECCENTRICITY": 0.00054805, "INCLINATION": 0.8355, "RA_OF_ASC_NODE": 86.0788, "ARG_OF_PERICENTER": 177.9544, "MEAN_ANOMALY": 296.0414, "EPHEMERIS_TYPE": 0, "CLASSIFICATION_TYPE": "U", "NORAD_CAT_ID": 36411, "ELEMENT_SET_NO": 999, "REV_AT_EPOCH": 5786, "BSTAR": 0, "MEAN_MOTION_DOT": 6e-07, "MEAN_MOTION_DDOT": 0}, "tle": {"line1": "1 36411U 10008A   25356.13270218  .00000060  00000+0  00000+0 0  9993", "line2": "2 36411   0.8355  86.0788 0005480 177.9544 296.0414  1.00271006 57868"}}, "geometry": {"type": "Point", "coordinates": [14.318908199083742, -0.791351823887842]}}, {"type": "Feature", "properties": {"norad_id": 36744, "name": "COMS 1", "group": "weather", "lat": 0.2653910456573775, "lon": 81.07172243982345, "alt_km": 35789.08563079332, "timestamp": "2025-12-22T14:45:57.026735+00:00", "meta": {"OBJECT_NAME": "COMS 1", "OBJECT_ID": "2010-032A", "EPOCH": "2025-12-21T20:05:21.835392", "MEAN_MOTION": 1.00271509, "ECCENTRICITY": 7.401e-05, "INCLINATION": 4.3609, "RA_OF_ASC_NODE": 77.8959, "ARG_OF_PERICENTER": 208.2946, "MEAN_ANOMALY": 233.9792, "EPHEMERIS_TYPE": 0, "CLASSIFICATION_TYPE": "U", "NORAD_CAT_ID": 36744, "ELEMENT_SET_NO": 999, "REV_AT_EPOCH": 4931, "BSTAR": 0, "MEAN_MOTION_DOT": -3.25e-06, "MEAN_MOTION_DDOT": 0}, "tle": {"line1": "1 36744U 10032A   25355.83705828 -.00000325  00000+0  00000+0 0  9990", "line2": "2 36744   4.3609  77.8959 0000740 208.2946 233.9792  1.00271509 49312"}}, "geometry": {"type": "Point", "coordinates": [81.07172243982345, 0.2653910456573775]}}, {"type": "Feature", "properties": {"norad_id": 37214, "name": "FENGYUN 3B", "group": "weather", "lat": -79.7128037534135, "lon": 155.9518490547632, "alt_km": 843.6389567396373, "timestamp": "2025-12-22T14:45:57.026747+00:00", "meta": {"OBJECT_NAME": "FENGYUN 3B", "OBJECT_ID": "2010-059A", "EPOCH": "2025-12-22T07:02:19.055904", "MEAN_MOTION": 14.14791659, "ECCENTRICITY": 0.00216044, "INCLINATION": 98.9894, "RA_OF_ASC_NODE": 36.3371, "ARG_OF_PERICENTER": 330.5824, "MEAN_ANOMALY": 95.6698, "EPHEMERIS_TYPE": 0, "CLASSIFICATION_TYPE": "U", "NORAD_CAT_ID": 37214, "ELEMENT_SET_NO": 999, "REV_AT_EPOCH": 78241, "BSTAR": -1.1925894e-05, "MEAN_MOTION_DOT": -6.9e-07, "MEAN_MOTION_DDOT": 0}, "tle": {"line1": "1 37214U 10059A   25356.29327611 -.00000069  00000+0 -11926-4 0  9993", "line2": "2 37214  98.9894  36.3371 0021604 330.5824  95.6698 14.14791659782419"}}, "geometry": {"type": "Point", "coordinates": [155.9518490547632, -79.7128037534135]}}, {"type": "Feature", "properties": {"norad_id": 37849, "name": "SUOMI NPP", "group": "weather", "lat": -80.52793767606154, "lon": 1.714286444595623, "alt_km": 836.0779075111677, "timestamp": "2025-12-22T14:45:57.026758+00:00", "meta": {"OBJECT_NAME": "SUOMI NPP", "OBJECT_ID": "2011-061A", "EPOCH": "2025-12-21T22:15:21.719808", "MEAN_MOTION": 14.19516721, "ECCENTRICITY": 0.0002479, "INCLINATION": 98.7786, "RA_OF_ASC_NODE": 293.1866, "ARG_OF_PERICENTER": 104.3593, "MEAN_ANOMALY": 255.7858, "EPHEMERIS_TYPE": 0, "CLASSIFICATION_TYPE": "U", "NORAD_CAT_ID": 37849, "ELEMENT_SET_NO": 999, "REV_AT_EPOCH": 73329, "BSTAR": 6.3109e-05, "MEAN_MOTION_DOT": 8.9e-07, "MEAN_MOTION_DDOT": 0}, "tle": {"line1": "1 37849U 11061A   25355.92733472  .00000089  00000+0  63109-4 0  9996", "line2": "2 37849  98.7786 293.1866 0002479 104.3593 255.7858 14.19516721733291"}}, "geometry": {"type": "Point", "coordinates": [1.714286444595623, -80.52793767606154]}}]}